OBJECT_NAME,OBJECT_ID,EPOCH,MEAN_MOTION,ECCENTRICITY,INCLINATION,RA_OF_ASC_NODE,ARG_OF_PERICENTER,MEAN_ANOMALY,EPHEMERIS_TYPE,CLASSIFICATION_TYPE,NORAD_CAT_ID,ELEMENT_SET_NO,REV_AT_EPOCH,BSTAR,MEAN_MOTION_DOT,MEAN_MOTION_DDOT
TIANMU-1 21,2023-208C,2026-07-02T19:48:54.736992,15.35356927,.0005765,97.4525,303.6086,254.6268,105.4339,0,U,58662,999,13996,.30921E-3,.10544E-3,0
TIANMU-1 22,2023-208D,2026-07-02T21:18:37.414656,15.31278002,.000217,97.4519,300.1934,286.4191,73.6811,0,U,58663,999,13973,.27415E-3,.8205E-4,0
TIANMU-1 15,2024-004A,2026-07-01T20:14:36.994272,15.26798099,.00056891,97.4664,9.0340,288.6642,71.3979,0,U,58700,999,13801,.32265143E-3,.8429E-4,0
TIANMU-1 16,2024-004B,2026-07-02T21:10:39.006624,15.26908609,.0004482,97.4613,9.2963,304.8965,55.1852,0,U,58701,999,13817,.23405E-3,.6112E-4,0
TIANMU-1 17,2024-004C,2026-07-02T20:49:43.355424,15.26906906,.0004089,97.4641,9.7725,312.9521,47.1374,0,U,58702,999,13816,.24348E-3,.6361E-4,0
TIANMU-1 18,2024-004D,2026-07-02T20:14:18.853728,15.26825036,.0003413,97.4658,10.0093,287.3644,72.7221,0,U,58703,999,13816,.23101E-3,.6016E-4,0
INSAT-3DS,2024-033A,2026-07-02T19:03:02.458080,1.00273790,.0001319,0.0723,96.7226,8.3588,183.5507,0,U,58990,999,4722,0,-.145E-5,0
METEOR-M2 4,2024-039A,2026-07-02T20:52:21.957312,14.22431146,.0008037,98.7018,142.9711,119.5224,240.6756,0,U,59051,999,12149,.29477E-4,.22E-6,0
GOES 19,2024-119A,2026-07-02T13:37:28.098912,1.00271173,.0000538,0.0126,77.9489,80.1000,251.7332,0,U,60133,999,711,0,-.238E-5,0
MTG-S1,2025-143A,2026-07-02T17:24:08.004096,1.00272109,.0002957,0.5916,342.2144,262.9947,296.1264,0,U,64723,999,357,0,.3E-7,0
METOP-SGA1,2025-172A,2026-07-02T15:26:27.688128,14.19817616,.000779,98.6636,243.0440,9.5325,350.5998,0,U,65159,999,4598,.51184E-4,.65E-6,0
FENGYUN 3H,2025-219A,2026-07-02T19:48:41.128992,14.19923114,.0001387,98.6770,124.2907,65.8877,294.2444,0,U,65815,999,3960,.49611E-4,.62E-6,0
