TIANMU-1 21             
1 58662U 23208C   26183.82563353  .00010544  00000+0  30921-3 0  9998
2 58662  97.4525 303.6086 0005765 254.6268 105.4339 15.35356927139962
TIANMU-1 22             
1 58663U 23208D   26183.88793304  .00008205  00000+0  27415-3 0  9991
2 58663  97.4519 300.1934 0002170 286.4191  73.6811 15.31278002139734
TIANMU-1 15             
1 58700U 24004A   26182.84348373  .00008429  00000+0  32265-3 0  9992
2 58700  97.4664   9.0340 0005689 288.6642  71.3979 15.26798099138013
TIANMU-1 16             
1 58701U 24004B   26183.88239591  .00006112  00000+0  23405-3 0  9992
2 58701  97.4613   9.2963 0004482 304.8965  55.1852 15.26908609138177
TIANMU-1 17             
1 58702U 24004C   26183.86786291  .00006361  00000+0  24348-3 0  9998
2 58702  97.4641   9.7725 0004089 312.9521  47.1374 15.26906906138168
TIANMU-1 18             
1 58703U 24004D   26183.84327377  .00006016  00000+0  23101-3 0  9996
2 58703  97.4658  10.0093 0003413 287.3644  72.7221 15.26825036138160
INSAT-3DS               
1 58990U 24033A   26183.79377845 -.00000145  00000+0  00000+0 0  9992
2 58990   0.0723  96.7226 0001319   8.3588 183.5507  1.00273790 47226
METEOR-M2 4             
1 59051U 24039A   26183.86969858  .00000022  00000+0  29477-4 0  9993
2 59051  98.7018 142.9711 0008037 119.5224 240.6756 14.22431146121497
GOES 19                 
1 60133U 24119A   26183.56768633 -.00000238  00000+0  00000+0 0  9996
2 60133   0.0126  77.9489 0000538  80.1000 251.7332  1.00271173  7117
MTG-S1                  
1 64723U 25143A   26183.72509264  .00000003  00000+0  00000+0 0  9993
2 64723   0.5916 342.2144 0002957 262.9947 296.1264  1.00272109  3574
METOP-SGA1              
1 65159U 25172A   26183.64337602  .00000065  00000+0  51184-4 0  9997
2 65159  98.6636 243.0440 0007790   9.5325 350.5998 14.19817616 45989
FENGYUN 3H              
1 65815U 25219A   26183.82547603  .00000062  00000+0  49611-4 0  9991
2 65815  98.6770 124.2907 0001387  65.8877 294.2444 14.19923114 39601
